ORBCOMM-X               
1 21576U 91050C   26021.46829244  .00000679  00000+0  21352-3 0  9993
2 21576  98.3167  88.3321 0002624 234.6904 125.4041 14.43474036813605
ORBCOMM FM01            
1 23545U 95017A   26020.93606822  .00017774  00000+0  16782-2 0  9998
2 23545  69.9600 249.7793 0005289 307.2450  52.8223 14.93760319644983
ORBCOMM FM02            
1 23546U 95017B   26020.89974965  .00021591  00000+0  19433-2 0  9998
2 23546  69.9622 268.2453 0006476 315.4080  44.6556 14.95586615644655
ORBCOMM FM08            
1 25112U 97084A   26020.77575603  .00003851  00000+0  10924-2 0  9993
2 25112  45.0136  42.6341 0008518 273.6069  86.3809 14.46765765472870
ORBCOMM FM10            
1 25113U 97084B   26020.79175066  .00003981  00000+0  11344-2 0  9996
2 25113  45.0151  45.3502 0006684 248.8102 111.2035 14.46499147648019
ORBCOMM FM11            
1 25114U 97084C   26020.76558153  .00002657  00000+0  77448-3 0  9993
2 25114  45.0144  46.5117 0007469 248.5776 111.4279 14.46244409472963
ORBCOMM FM12            
1 25115U 97084D   26020.79402386  .00002739  00000+0  79693-3 0  9998
2 25115  45.0152  46.1026 0006529 248.5242 111.4913 14.46267034472764
ORBCOMM FM09            
1 25116U 97084E   26020.77852414  .00002603  00000+0  76187-3 0  9993
2 25116  45.0156  47.3551 0007463 236.9653 123.0482 14.46099663472963
